{"type": "FeatureCollection", "features": [ {"type": "Feature", "properties": {"norad_id": 38487, "name": "COSMOS 2251 DEB", "group": "cosmos-2251-debris", "lat": 36.70756810317649, "lon": -154.46780278325568, "alt_km": 506.1255035185068, "timestamp": "2025-12-10T18:57:00.463208+00:00", "meta": {"OBJECT_NAME": "COSMOS 2251 DEB", "OBJECT_ID": "1993-036BTX", "EPOCH": "2025-12-10T10:24:49.677120", "MEAN_MOTION": 15.17046489, "ECCENTRICITY": 0.0021712, "INCLINATION": 73.9735, "RA_OF_ASC_NODE": 38.6522, "ARG_OF_PERICENTER": 210.3514, "MEAN_ANOMALY": 149.6426, "EPHEMERIS_TYPE": 0, "CLASSIFICATION_TYPE": "U", "NORAD_CAT_ID": 38487, "ELEMENT_SET_NO": 999, "REV_AT_EPOCH": 66765, "BSTAR": 0.0029649, "MEAN_MOTION_DOT": 0.00059478, "MEAN_MOTION_DDOT": 0}, "tle": {"line1": "1 38487U 93036BTX 25344.43390830  .00059478  00000+0  29649-2 0  9993", "line2": "2 38487  73.9735  38.6522 0021712 210.3514 149.6426 15.17046489667658"}}, "geometry": {"type": "Point", "coordinates": [-154.46780278325568, 36.70756810317649]}}, {"type": "Feature", "properties": {"norad_id": 39109, "name": "COSMOS 2251 DEB", "group": "cosmos-2251-debris", "lat": 28.442536179363113, "lon": -122.22178105560472, "alt_km": 634.4008955513864, "timestamp": "2025-12-10T18:57:00.463218+00:00", "meta": {"OBJECT_NAME": "COSMOS 2251 DEB", "OBJECT_ID": "1993-036BTY", "EPOCH": "2025-12-09T10:58:18.988608", "MEAN_MOTION": 14.70683686, "ECCENTRICITY": 0.00592583, "INCLINATION": 74.0426, "RA_OF_ASC_NODE": 231.4464, "ARG_OF_PERICENTER": 335.6145, "MEAN_ANOMALY": 202.0339, "EPHEMERIS_TYPE": 0, "CLASSIFICATION_TYPE": "U", "NORAD_CAT_ID": 39109, "ELEMENT_SET_NO": 999, "REV_AT_EPOCH": 65125, "BSTAR": 0.00089315049, "MEAN_MOTION_DOT": 5.561e-05, "MEAN_MOTION_DDOT": 0}, "tle": {"line1": "1 39109U 93036BTY 25343.45716422  .00005561  00000+0  89315-3 0  9996", "line2": "2 39109  74.0426 231.4464 0059258 335.6145 202.0339 14.70683686651254"}}, "geometry": {"type": "Point", "coordinates": [-122.22178105560472, 28.442536179363113]}}, {"type": "Feature", "properties": {"norad_id": 39110, "name": "COSMOS 2251 DEB", "group": "cosmos-2251-debris", "lat": -18.050058948972197, "lon": -109.29857237753046, "alt_km": 668.6041323886857, "timestamp": "2025-12-10T18:57:00.463228+00:00", "meta": {"OBJECT_NAME": "COSMOS 2251 DEB", "OBJECT_ID": "1993-036BTZ", "EPOCH": "2025-12-03T13:14:13.055136", "MEAN_MOTION": 14.72215365, "ECCENTRICITY": 0.00964609, "INCLINATION": 73.9598, "RA_OF_ASC_NODE": 79.4668, "ARG_OF_PERICENTER": 313.6965, "MEAN_ANOMALY": 59.6182, "EPHEMERIS_TYPE": 0, "CLASSIFICATION_TYPE": "U", "NORAD_CAT_ID": 39110, "ELEMENT_SET_NO": 999, "REV_AT_EPOCH": 62349, "BSTAR": 0.00066560445, "MEAN_MOTION_DOT": 4.484e-05, "MEAN_MOTION_DDOT": 0}, "tle": {"line1": "1 39110U 93036BTZ 25337.55153999  .00004484  00000+0  66560-3 0  9996", "line2": "2 39110  73.9598  79.4668 0096460 313.6965  59.6182 14.72215365623496"}}, "geometry": {"type": "Point", "coordinates": [-109.29857237753046, -18.050058948972197]}}, {"type": "Feature", "properties": {"norad_id": 39111, "name": "COSMOS 2251 DEB", "group": "cosmos-2251-debris", "lat": -18.109405633228036, "lon": -129.41800723493054, "alt_km": 537.2755251214321, "timestamp": "2025-12-10T18:57:00.463238+00:00", "meta": {"OBJECT_NAME": "COSMOS 2251 DEB", "OBJECT_ID": "1993-036BUA", "EPOCH": "2025-12-01T22:58:55.551360", "MEAN_MOTION": 15.11912111, "ECCENTRICITY": 0.00109111, "INCLINATION": 74.0059, "RA_OF_ASC_NODE": 63.5328, "ARG_OF_PERICENTER": 39.1207, "MEAN_ANOMALY": 321.0773, "EPHEMERIS_TYPE": 0, "CLASSIFICATION_TYPE": "U", "NORAD_CAT_ID": 39111, "ELEMENT_SET_NO": 999, "REV_AT_EPOCH": 8982, "BSTAR": 0.0056424119, "MEAN_MOTION_DOT": 0.00098096, "MEAN_MOTION_DDOT": 0}, "tle": {"line1": "1 39111U 93036BUA 25335.95758740  .00098096  00000+0  56424-2 0  9993", "line2": "2 39111  74.0059  63.5328 0010911  39.1207 321.0773 15.11912111 89826"}}, "geometry": {"type": "Point", "coordinates": [-129.41800723493054, -18.109405633228036]}}, {"type": "Feature", "properties": {"norad_id": 39546, "name": "COSMOS 2251 DEB", "group": "cosmos-2251-debris", "lat": 67.20759401676106, "lon": -82.36187886448535, "alt_km": 614.6567823804826, "timestamp": "2025-12-10T18:57:00.463249+00:00", "meta": {"OBJECT_NAME": "COSMOS 2251 DEB", "OBJECT_ID": "1993-036BUC", "EPOCH": "2025-12-10T03:59:23.245728", "MEAN_MOTION": 14.91933203, "ECCENTRICITY": 0.00440579, "INCLINATION": 73.9968, "RA_OF_ASC_NODE": 141.9703, "ARG_OF_PERICENTER": 302.2673, "MEAN_ANOMALY": 57.4244, "EPHEMERIS_TYPE": 0, "CLASSIFICATION_TYPE": "U", "NORAD_CAT_ID": 39546, "ELEMENT_SET_NO": 999, "REV_AT_EPOCH": 64398, "BSTAR": 0.0019195569, "MEAN_MOTION_DOT": 0.00019813, "MEAN_MOTION_DDOT": 0}, "tle": {"line1": "1 39546U 93036BUC 25344.16624127  .00019813  00000+0  19196-2 0  9994", "line2": "2 39546  73.9968 141.9703 0044057 302.2673  57.4244 14.91933203643980"}}, "geometry": {"type": "Point", "coordinates": [-82.36187886448535, 67.20759401676106]}}, {"type": "Feature", "properties": {"norad_id": 39547, "name": "COSMOS 2251 DEB", "group": "cosmos-2251-debris", "lat": 16.79955202664438, "lon": 27.344266490104808, "alt_km": 554.2966237193859, "timestamp": "2025-12-10T18:57:00.463259+00:00", "meta": {"OBJECT_NAME": "COSMOS 2251 DEB", "OBJECT_ID": "1993-036BUD", "EPOCH": "2025-12-08T21:19:55.077888", "MEAN_MOTION": 15.02877714, "ECCENTRICITY": 0.0005088, "INCLINATION": 74.0015, "RA_OF_ASC_NODE": 26.2621, "ARG_OF_PERICENTER": 23.5572, "MEAN_ANOMALY": 154.1498, "EPHEMERIS_TYPE": 0, "CLASSIFICATION_TYPE": "U", "NORAD_CAT_ID": 39547, "ELEMENT_SET_NO": 999, "REV_AT_EPOCH": 63967, "BSTAR": 0.002907, "MEAN_MOTION_DOT": 0.0003919, "MEAN_MOTION_DDOT": 0}, "tle": {"line1": "1 39547U 93036BUD 25342.88883192  .00039190  00000+0  29070-2 0  9993", "line2": "2 39547  74.0015  26.2621 0005088  23.5572 154.1498 15.02877714639676"}}, "geometry": {"type": "Point", "coordinates": [27.344266490104808, 16.79955202664438]}}, {"type": "Feature", "properties": {"norad_id": 39553, "name": "COSMOS 2251 DEB", "group": "cosmos-2251-debris", "lat": -12.233334216143595, "lon": 156.95595266412204, "alt_km": 876.8077576941196, "timestamp": "2025-12-10T18:57:00.463269+00:00", "meta": {"OBJECT_NAME": "COSMOS 2251 DEB", "OBJECT_ID": "1993-036BUK", "EPOCH": "2025-12-07T06:00:50.455872", "MEAN_MOTION": 13.99876591, "ECCENTRICITY": 0.02014092, "INCLINATION": 74.0304, "RA_OF_ASC_NODE": 339.5232, "ARG_OF_PERICENTER": 116.8065, "MEAN_ANOMALY": 245.3825, "EPHEMERIS_TYPE": 0, "CLASSIFICATION_TYPE": "U", "NORAD_CAT_ID": 39553, "ELEMENT_SET_NO": 999, "REV_AT_EPOCH": 75540, "BSTAR": 0.00088887208, "MEAN_MOTION_DOT": 1.532e-05, "MEAN_MOTION_DDOT": 0}, "tle": {"line1": "1 39553U 93036BUK 25341.25058398  .00001532  00000+0  88887-3 0  9993", "line2": "2 39553  74.0304 339.5232 0201409 116.8065 245.3825 13.99876591755403"}}, "geometry": {"type": "Point", "coordinates": [156.95595266412204, -12.233334216143595]}}, {"type": "Feature", "properties": {"norad_id": 39554, "name": "COSMOS 2251 DEB", "group": "cosmos-2251-debris", "lat": 16.097223227239457, "lon": 83.89683223145212, "alt_km": 535.9204496785433, "timestamp": "2025-12-10T18:57:00.463279+00:00", "meta": {"OBJECT_NAME": "COSMOS 2251 DEB", "OBJECT_ID": "1993-036BUL", "EPOCH": "2025-12-10T06:12:03.924864", "MEAN_MOTION": 15.10130993, "ECCENTRICITY": 0.0002993, "INCLINATION": 74.0187, "RA_OF_ASC_NODE": 269.7383, "ARG_OF_PERICENTER": 74.7531, "MEAN_ANOMALY": 81.5927, "EPHEMERIS_TYPE": 0, "CLASSIFICATION_TYPE": "U", "NORAD_CAT_ID": 39554, "ELEMENT_SET_NO": 999, "REV_AT_EPOCH": 64347, "BSTAR": 0.0046896, "MEAN_MOTION_DOT": 0.000773, "MEAN_MOTION_DDOT": 0}, "tle": {"line1": "1 39554U 93036BUL 25344.25837876  .00077300  00000+0  46896-2 0  9992", "line2": "2 39554  74.0187 269.7383 0002993  74.7531  81.5927 15.10130993643471"}}, "geometry": {"type": "Point", "coordinates": [83.89683223145212, 16.097223227239457]}}, {"type": "Feature", "properties": {"norad_id": 39583, "name": "COSMOS 2251 DEB", "group": "cosmos-2251-debris", "lat": -13.451510409545692, "lon": 74.9312710506454, "alt_km": 791.7378288070313, "timestamp": "2025-12-10T18:57:00.463289+00:00", "meta": {"OBJECT_NAME": "COSMOS 2251 DEB", "OBJECT_ID": "1993-036BUN", "EPOCH": "2025-12-08T00:17:58.189056", "MEAN_MOTION": 14.60283512, "ECCENTRICITY": 0.01370352, "INCLINATION": 73.9395, "RA_OF_ASC_NODE": 256.3131, "ARG_OF_PERICENTER": 10.5711, "MEAN_ANOMALY": 349.8282, "EPHEMERIS_TYPE": 0, "CLASSIFICATION_TYPE": "U", "NORAD_CAT_ID": 39583, "ELEMENT_SET_NO": 999, "REV_AT_EPOCH": 61710, "BSTAR": 0.0025519779, "MEAN_MOTION_DOT": 0.00014063, "MEAN_MOTION_DDOT": 0}, "tle": {"line1": "1 39583U 93036BUN 25342.01247904  .00014063  00000+0  25520-2 0  9991", "line2": "2 39583  73.9395 256.3131 0137035  10.5711 349.8282 14.60283512617104"}}, "geometry": {"type": "Point", "coordinates": [74.9312710506454, -13.451510409545692]}}, {"type": "Feature", "properties": {"norad_id": 39585, "name": "COSMOS 2251 DEB", "group": "cosmos-2251-debris", "lat": 29.84999546458383, "lon": -45.51967854074463, "alt_km": 657.7679399334875, "timestamp": "2025-12-10T18:57:00.463299+00:00", "meta": {"OBJECT_NAME": "COSMOS 2251 DEB", "OBJECT_ID": "1993-036BUQ", "EPOCH": "2025-12-09T14:49:35.322816", "MEAN_MOTION": 14.58655096, "ECCENTRICITY": 0.0065405, "INCLINATION": 74.0411, "RA_OF_ASC_NODE": 307.2584, "ARG_OF_PERICENTER": 69.0888, "MEAN_ANOMALY": 291.7262, "EPHEMERIS_TYPE": 0, "CLASSIFICATION_TYPE": "U", "NORAD_CAT_ID": 39585, "ELEMENT_SET_NO": 999, "REV_AT_EPOCH": 62475, "BSTAR": 0.00049693, "MEAN_MOTION_DOT": 2.356e-05, "MEAN_MOTION_DDOT": 0}, "tle": {"line1": "1 39585U 93036BUQ 25343.61776994  .00002356  00000+0  49693-3 0  9996", "line2": "2 39585  74.0411 307.2584 0065405  69.0888 291.7262 14.58655096624759"}}, "geometry": {"type": "Point", "coordinates": [-45.51967854074463, 29.84999546458383]}}]}